[
    {
        "Altitude(m)": 607895.8307216923,
        "Argument of Periapsis(deg)": 0.0,
        "Eccentricity": 0.0,
        "Inclination(deg)": 60.0,
        "Latitude(deg)": 40.99837571699696,
        "Longitude(deg)": 170.08873696163937,
        "Mean Anomaly(deg)": 130.90910000000005,
        "RAAN(deg)": 120.0,
        "Satellite Name": "Test1 536",
        "Satellite Number": 536,
        "Semi-Major Axis(m)": 6980739.136638005,
        "Time(s)": 0
    },
    {
        "Altitude(m)": 607795.1431939696,
        "Argument of Periapsis(deg)": 0.00010418945913296404,
        "Eccentricity": 0.0,
        "Inclination(deg)": 60.0,
        "Latitude(deg)": 40.53069906046676,
        "Longitude(deg)": 170.58532956327696,
        "Mean Anomaly(deg)": 131.5292061454618,
        "RAAN(deg)": 119.99957995086024,
        "Satellite Name": "Test1 536",
        "Satellite Number": 536,
        "Semi-Major Axis(m)": 6980739.136638005,
        "Time(s)": 10
    }
]